ONEWEB-0267             
1 48985U 21060U   24275.50971906  .00000243  00000+0  60102-3 0  9990
2 48985  87.9158 352.9932 0002156 109.8133 250.3230 13.16595806157525
ONEWEB-0268             
1 48986U 21060V   24275.25006630 -.00000290  00000+0 -79284-3 0  9991
2 48986  87.9176 353.0512 0001393  98.3571 261.7718 13.16591791157753
ONEWEB-0269             
1 48987U 21060W   24275.45905760  .00000168  00000+0  40555-3 0  9997
2 48987  87.9175 353.0386 0001880 100.2733 259.8610 13.16595073157550
ONEWEB-0270             
1 48988U 21060X   24275.47646671  .00000112  00000+0  25915-3 0  9995
2 48988  87.9170 353.0134 0002444 105.6463 254.4938 13.16596626157596
ONEWEB-0271             
1 48989U 21060Y   24275.46380938  .00000113  00000+0  26148-3 0  9996
2 48989  87.9169 352.9937 0002236 108.7567 251.3807 13.16595497157598
ONEWEB-0272             
1 48990U 21060Z   24275.48596960  .00000063  00000+0  13019-3 0  9991
2 48990  87.9169 353.0192 0002077 107.8636 252.2722 13.16595659157546
ONEWEB-0273             
1 48991U 21060AA  24275.50813692  .00000238  00000+0  58910-3 0  9992
2 48991  87.9165 353.0008 0002150 100.7124 259.4249 13.16594615157527
ONEWEB-0274             
1 48992U 21060AB  24275.45747794  .00000195  00000+0  47598-3 0  9998
2 48992  87.9183 353.0322 0001751 115.6412 244.4900 13.16594535157550
